{
    "links": {
        "self": "http://www.neowsapp.com/rest/v1/neo/3508119?api_key=iIulBulltgU6a56xZRHN4H3l9WmuAYTsLGpBGhQ2"
    },
    "id": "3508119",
    "neo_reference_id": "3508119",
    "name": "(2010 CO19)",
    "designation": "2010 CO19",
    "nasa_jpl_url": "http://ssd.jpl.nasa.gov/sbdb.cgi?sstr=3508119",
    "absolute_magnitude_h": 25.7,
    "estimated_diameter": {
        "kilometers": {
            "estimated_diameter_min": 0.0192555078,
            "estimated_diameter_max": 0.0430566244
        },
        "meters": {
            "estimated_diameter_min": 19.2555078188,
            "estimated_diameter_max": 43.0566244241
        },
        "miles": {
            "estimated_diameter_min": 0.0119648141,
            "estimated_diameter_max": 0.0267541378
        },
        "feet": {
            "estimated_diameter_min": 63.1742402722,
            "estimated_diameter_max": 141.2618956756
        }
    },
    "is_potentially_hazardous_asteroid": false,
    "close_approach_data": [
        {
            "close_approach_date": "2010-02-22",
            "close_approach_date_full": "2010-Feb-22 12:59",
            "epoch_date_close_approach": 1266843540000,
            "relative_velocity": {
                "kilometers_per_second": "6.1684773355",
                "kilometers_per_hour": "22206.5184079708",
                "miles_per_hour": "13798.2669518861"
            },
            "miss_distance": {
                "astronomical": "0.0609383368",
                "lunar": "23.7050130152",
                "kilometers": "9116245.386622616",
                "miles": "5664572.2135434608"
            },
            "orbiting_body": "Earth"
        }
    ],
    "orbital_data": {
        "orbit_id": "8",
        "orbit_determination_date": "2017-04-06 08:58:24",
        "first_observation_date": "2010-02-15",
        "last_observation_date": "2010-02-19",
        "data_arc_in_days": 4,
        "observations_used": 15,
        "orbit_uncertainty": "8",
        "minimum_orbit_intersection": ".0585148",
        "jupiter_tisserand_invariant": "4.733",
        "epoch_osculation": "2455243.5",
        "eccentricity": ".258348085432487",
        "semi_major_axis": "1.387780759520505",
        "inclination": "9.770768383586681",
        "ascending_node_longitude": "323.8340454289975",
        "orbital_period": "597.1448896032477",
        "perihelion_distance": "1.02925025729834",
        "perihelion_argument": "208.1055778511108",
        "aphelion_distance": "1.74631126174267",
        "perihelion_time": "2455268.264602285300",
        "mean_anomaly": "345.0701948925135",
        "mean_motion": ".6028687614478113",
        "equinox": "J2000",
        "orbit_class": {
            "orbit_class_type": "AMO",
            "orbit_class_description": "Near-Earth asteroid orbits similar to that of 1221 Amor",
            "orbit_class_range": "1.017 AU < q (perihelion) < 1.3 AU"
        }
    },
    "is_sentry_object": false
}